{
    "links": {
        "self": "http://www.neowsapp.com/rest/v1/neo/3752727?api_key=iIulBulltgU6a56xZRHN4H3l9WmuAYTsLGpBGhQ2"
    },
    "id": "3752727",
    "neo_reference_id": "3752727",
    "name": "(2016 JT)",
    "designation": "2016 JT",
    "nasa_jpl_url": "http://ssd.jpl.nasa.gov/sbdb.cgi?sstr=3752727",
    "absolute_magnitude_h": 24.2,
    "estimated_diameter": {
        "kilometers": {
            "estimated_diameter_min": 0.0384197891,
            "estimated_diameter_max": 0.0859092601
        },
        "meters": {
            "estimated_diameter_min": 38.4197891064,
            "estimated_diameter_max": 85.9092601232
        },
        "miles": {
            "estimated_diameter_min": 0.0238729428,
            "estimated_diameter_max": 0.0533815229
        },
        "feet": {
            "estimated_diameter_min": 126.0491808919,
            "estimated_diameter_max": 281.8545369825
        }
    },
    "is_potentially_hazardous_asteroid": false,
    "close_approach_data": [
        {
            "close_approach_date": "2016-05-30",
            "close_approach_date_full": "2016-May-30 05:43",
            "epoch_date_close_approach": 1464586980000,
            "relative_velocity": {
                "kilometers_per_second": "6.9112319115",
                "kilometers_per_hour": "24880.4348814852",
                "miles_per_hour": "15459.7346628873"
            },
            "miss_distance": {
                "astronomical": "0.0775075965",
                "lunar": "30.1504550385",
                "kilometers": "11594971.345219455",
                "miles": "7204781.103780279"
            },
            "orbiting_body": "Earth"
        }
    ],
    "orbital_data": {
        "orbit_id": "16",
        "orbit_determination_date": "2017-04-06 08:26:13",
        "first_observation_date": "2016-05-02",
        "last_observation_date": "2016-07-06",
        "data_arc_in_days": 65,
        "observations_used": 73,
        "orbit_uncertainty": "6",
        "minimum_orbit_intersection": ".0760019",
        "jupiter_tisserand_invariant": "3.396",
        "epoch_osculation": "2459000.5",
        "eccentricity": ".5325920888973914",
        "semi_major_axis": "2.284885863218902",
        "inclination": "4.509159996395632",
        "ascending_node_longitude": "33.31477878382766",
        "orbital_period": "1261.523057820111",
        "perihelion_distance": "1.067973728435027",
        "perihelion_argument": "225.2318790764159",
        "aphelion_distance": "3.501797998002776",
        "perihelion_time": "2458809.255572240563",
        "mean_anomaly": "54.57529576380891",
        "mean_motion": ".2853693380936481",
        "equinox": "J2000",
        "orbit_class": {
            "orbit_class_type": "AMO",
            "orbit_class_description": "Near-Earth asteroid orbits similar to that of 1221 Amor",
            "orbit_class_range": "1.017 AU < q (perihelion) < 1.3 AU"
        }
    },
    "is_sentry_object": false
}